{
    "links": {
        "self": "http://www.neowsapp.com/rest/v1/neo/3750661?api_key=iIulBulltgU6a56xZRHN4H3l9WmuAYTsLGpBGhQ2"
    },
    "id": "3750661",
    "neo_reference_id": "3750661",
    "name": "(2016 GM134)",
    "designation": "2016 GM134",
    "nasa_jpl_url": "http://ssd.jpl.nasa.gov/sbdb.cgi?sstr=3750661",
    "absolute_magnitude_h": 26.0,
    "estimated_diameter": {
        "kilometers": {
            "estimated_diameter_min": 0.0167708462,
            "estimated_diameter_max": 0.0375007522
        },
        "meters": {
            "estimated_diameter_min": 16.7708462163,
            "estimated_diameter_max": 37.5007521798
        },
        "miles": {
            "estimated_diameter_min": 0.0104209175,
            "estimated_diameter_max": 0.0233018799
        },
        "feet": {
            "estimated_diameter_min": 55.0224631002,
            "estimated_diameter_max": 123.0339677816
        }
    },
    "is_potentially_hazardous_asteroid": false,
    "close_approach_data": [
        {
            "close_approach_date": "2015-10-26",
            "close_approach_date_full": "2015-Oct-26 15:54",
            "epoch_date_close_approach": 1445874840000,
            "relative_velocity": {
                "kilometers_per_second": "3.7194436232",
                "kilometers_per_hour": "13389.9970436587",
                "miles_per_hour": "8320.0234408222"
            },
            "miss_distance": {
                "astronomical": "0.2724258906",
                "lunar": "105.9736714434",
                "kilometers": "40754332.966613022",
                "miles": "25323568.2359908236"
            },
            "orbiting_body": "Earth"
        },
        {
            "close_approach_date": "2016-03-11",
            "close_approach_date_full": "2016-Mar-11 16:47",
            "epoch_date_close_approach": 1457714820000,
            "relative_velocity": {
                "kilometers_per_second": "5.7544765414",
                "kilometers_per_hour": "20716.1155489851",
                "miles_per_hour": "12872.1885754236"
            },
            "miss_distance": {
                "astronomical": "0.0351854172",
                "lunar": "13.6871272908",
                "kilometers": "5263663.468181364",
                "miles": "3270688.8152722632"
            },
            "orbiting_body": "Earth"
        },
        {
            "close_approach_date": "2022-02-16",
            "close_approach_date_full": "2022-Feb-16 03:44",
            "epoch_date_close_approach": 1644983040000,
            "relative_velocity": {
                "kilometers_per_second": "8.9476917332",
                "kilometers_per_hour": "32211.6902393734",
                "miles_per_hour": "20015.091637904"
            },
            "miss_distance": {
                "astronomical": "0.097139941",
                "lunar": "37.787437049",
                "kilometers": "14531928.26552567",
                "miles": "9029721.510447446"
            },
            "orbiting_body": "Mars"
        }
    ],
    "orbital_data": {
        "orbit_id": "4",
        "orbit_determination_date": "2017-04-06 08:26:43",
        "first_observation_date": "2016-04-04",
        "last_observation_date": "2016-04-13",
        "data_arc_in_days": 9,
        "observations_used": 21,
        "orbit_uncertainty": "8",
        "minimum_orbit_intersection": ".0336229",
        "jupiter_tisserand_invariant": "5.095",
        "epoch_osculation": "2457484.5",
        "eccentricity": ".2684731325147229",
        "semi_major_axis": "1.253384032371978",
        "inclination": "3.350713651355518",
        "ascending_node_longitude": "26.89676713787361",
        "orbital_period": "512.5363400712763",
        "perihelion_distance": ".9168840949571385",
        "perihelion_argument": "92.72166970425701",
        "aphelion_distance": "1.589883969786818",
        "perihelion_time": "2457415.382983943696",
        "mean_anomaly": "48.54704697975013",
        "mean_motion": ".7023892197574445",
        "equinox": "J2000",
        "orbit_class": {
            "orbit_class_type": "APO",
            "orbit_class_description": "Near-Earth asteroid orbits which cross the Earth’s orbit similar to that of 1862 Apollo",
            "orbit_class_range": "a (semi-major axis) > 1.0 AU; q (perihelion) < 1.017 AU"
        }
    },
    "is_sentry_object": false
}